ALOS-2                  
1 39766U 14029A   26157.92660347  .00001433  00000+0  19878-3 0  9991
2 39766  97.9212 255.2373 0001679  89.7986 270.3418 14.79467529650066
KAZEOSAT 2              
1 40010U 14033A   26157.92387247  .00001331  00000+0  16007-3 0  9993
2 40010  97.5412 358.0778 0008851   4.3833 355.7459 14.85460867647437
HODOYOSHI-4             
1 40011U 14033B   26157.94799635  .00002266  00000+0  25076-3 0  9998
2 40011  97.5455 343.2651 0023380 343.7249  16.3215 14.88108518647284
DEIMOS-2                
1 40013U 14033D   26157.93385248  .00002343  00000+0  22664-3 0  9996
2 40013  97.5834  32.7823 0002007  61.2218 298.9204 14.93698254636190
HODOYOSHI-3             
1 40015U 14033F   26157.40674962  .00001223  00000+0  14676-3 0  9994
2 40015  97.6410 320.8823 0033610  32.4637 327.8637 14.85366576646028
SPOT 7                  
1 40053U 14034A   26157.90819428  .00000493  00000+0  10995-3 0  9998
2 40053  98.0628 220.6643 0001191  83.0568 277.0769 14.60949416635637
SKYSAT-B                
1 40072U 14037D   26157.63502067  .00001618  00000+0  18297-3 0  9993
2 40072  98.3832 115.9991 0004695 324.8850  35.2055 14.88000738644392
WORLDVIEW-3 (WV-3)      
1 40115U 14048A   26157.92549971  .00000921  00000+0  11428-3 0  9995
2 40115  97.8566 232.9000 0001753  41.5308 318.6040 14.85005133640380
GAOFEN-2                
1 40118U 14049A   26157.97359909  .00000286  00000+0  43876-4 0  9991
2 40118  98.0107 222.1904 0005862 268.2154  91.8387 14.80886981637724
YAOGAN-21               
1 40143U 14053A   26157.93520248  .00009872  00000+0  38338-3 0  9992
2 40143  97.1479 198.6114 0009730 122.7070 237.5108 15.26222878653394
YAOGAN-22               
1 40275U 14063A   26157.69064211 -.00000014  00000+0  86436-4 0  9998
2 40275 100.7712 308.7901 0006101 209.3425 150.7345 13.15530720558436
ASNARO                  
1 40298U 14070A   26157.95109676  .00009646  00000+0  46002-3 0  9998
2 40298  97.3450 234.3433 0004601 200.1523 159.9531 15.19283222642458
YAOGAN-24               
1 40310U 14072A   26157.98264279  .00000520  00000+0  82775-4 0  9999
2 40310  98.1480 295.2349 0012787 300.0944  59.8997 14.76209144622217
CBERS 4                 
1 40336U 14079A   26157.93042157 -.00000037  00000+0  18304-5 0  9990
2 40336  98.3531 215.0834 0002056  73.6976 286.4436 14.35505825602482
YAOGAN-26               
1 40362U 14088A   26157.97916505  .00035068  00000+0  69498-3 0  9999
2 40362  97.0649 158.4301 0006729  90.1410 270.0612 15.46946907636120
SMAP                    
1 40376U 15003A   26157.89178685  .00000456  00000+0  97371-4 0  9997
2 40376  98.1276 165.1322 0001256  92.7506 267.3840 14.63357522606110
KOMPSAT-3A              
1 40536U 15014A   26157.93747980  .00026802  00000+0  39526-3 0  9992
2 40536  97.6889 148.5544 0055577 211.8599 147.9288 15.53528421620229
SENTINEL-2A             
1 40697U 15028A   26157.93496683  .00000158  00000+0  77099-4 0  9990
2 40697  98.5680 232.9318 0001080  87.1387 272.9920 14.30820921572268
GAOFEN-8                
1 40701U 15030A   26157.92439116  .00022028  00000+0  45882-3 0  9990
2 40701  97.6917 350.6813 0007985 224.9365 135.1237 15.45584556609868
CARBONITE 1 (CBNT-1)    
1 40718U 15032D   26157.93067856  .00002638  00000+0  32598-3 0  9994
2 40718  97.6507 336.4275 0013870 334.4894  25.5634 14.83559042587826
YAOGAN-27               
1 40878U 15040A   26157.91778756 -.00000041  00000+0  31934-5 0  9998
2 40878 100.1155 144.7467 0007466 236.2732 123.7671 13.16070083516315
GAOFEN-9 01             
1 40894U 15047A   26157.94083613  .00001028  00000+0  13239-3 0  9998
2 40894  97.6284 194.1009 0027584 170.5520 189.6219 14.82864174578677
YAOGAN-28               
1 41026U 15064A   26157.97140427  .00007554  00000+0  28491-3 0  9991
2 41026  97.3065 296.4432 0009736 220.7321 139.3191 15.27286661589123
YAOGAN-29               
1 41038U 15069A   26157.92263522  .00000724  00000+0  95583-4 0  9995
2 41038  98.0031 186.5393 0002987  70.7085 289.4451 14.83078300569105
KENT RIDGE 1            
1 41167U 15077B   26157.16161409  .00004828  00000+0  16723-3 0  9991
2 41167  14.9812 347.9786 0008308  82.2987 277.8279 15.23064317579415
GAOFEN-4                
1 41194U 15083A   26157.79613806 -.00000321  00000+0  00000+0 0  9992
2 41194   0.3301  83.7532 0004358 108.8481  94.9007  1.00269078 38425
JASON-3                 
1 41240U 16002A   26157.90554982 -.00000051  00000+0  43541-4 0  9990
2 41240  66.0390 147.4512 0008593 273.1915  86.8121 12.87627770485925
SENTINEL-3A             
1 41335U 16011A   26157.90747494  .00000115  00000+0  65689-4 0  9994
2 41335  98.6250 225.4383 0001345 104.6986 255.4344 14.26737156536599
ZIYUAN 3-02 (ZY 3-02)   
1 41556U 16033A   26157.92964481  .00005853  00000+0  26362-3 0  9990
2 41556  97.3832 233.9000 0011745 330.3869  29.6700 15.21382140556425
CARTOSAT-2C             
1 41599U 16040A   26157.91750831  .00005015  00000+0  24101-3 0  9995
2 41599  97.4480 218.0364 0009575 163.9766 196.1773 15.19234363552159
