OBJECT_NAME,OBJECT_ID,EPOCH,MEAN_MOTION,ECCENTRICITY,INCLINATION,RA_OF_ASC_NODE,ARG_OF_PERICENTER,MEAN_ANOMALY,EPHEMERIS_TYPE,CLASSIFICATION_TYPE,NORAD_CAT_ID,ELEMENT_SET_NO,REV_AT_EPOCH,BSTAR,MEAN_MOTION_DOT,MEAN_MOTION_DDOT
ALOS-2,2014-029A,2026-06-06T22:14:18.539808,14.79467529,.00016798,97.9212,255.2373,89.7986,270.3418,0,U,39766,999,65006,.19877568E-3,.1433E-4,0
KAZEOSAT 2,2014-033A,2026-06-06T22:10:22.581408,14.85460867,.00088515,97.5412,358.0778,4.3833,355.7459,0,U,40010,999,64743,.16007319E-3,.1331E-4,0
HODOYOSHI-4,2014-033B,2026-06-06T22:45:06.884640,14.88108518,.00233804,97.5455,343.2651,343.7249,16.3215,0,U,40011,999,64728,.25075814E-3,.2266E-4,0
DEIMOS-2,2014-033D,2026-06-06T22:24:44.854272,14.93698254,.00020078,97.5834,32.7823,61.2218,298.9204,0,U,40013,999,63619,.22664262E-3,.2343E-4,0
HODOYOSHI-3,2014-033F,2026-06-06T09:45:43.167168,14.85366576,.00336104,97.6410,320.8823,32.4637,327.8637,0,U,40015,999,64602,.14675705E-3,.1223E-4,0
SPOT 7,2014-034A,2026-06-06T21:47:47.985792,14.60949416,.00011911,98.0628,220.6643,83.0568,277.0769,0,U,40053,999,63563,.10995261E-3,.493E-5,0
SKYSAT-B,2014-037D,2026-06-06T15:14:25.785888,14.88000738,.00046959,98.3832,115.9991,324.8850,35.2055,0,U,40072,999,64439,.18296707E-3,.1618E-4,0
WORLDVIEW-3 (WV-3),2014-048A,2026-06-06T22:12:43.174944,14.85005133,.0001753,97.8566,232.9000,41.5308,318.6040,0,U,40115,999,64038,.11428024E-3,.921E-5,0
GAOFEN-2,2014-049A,2026-06-06T23:21:58.961376,14.80886981,.00058624,98.0107,222.1904,268.2154,91.8387,0,U,40118,999,63772,.43875587E-4,.286E-5,0
YAOGAN-21,2014-053A,2026-06-06T22:26:41.494272,15.26222878,.000973,97.1479,198.6114,122.7070,237.5108,0,U,40143,999,65339,.38337758E-3,.9872E-4,0
YAOGAN-22,2014-063A,2026-06-06T16:34:31.478304,13.15530720,.00061014,100.7712,308.7901,209.3425,150.7345,0,U,40275,999,55843,.86435633E-4,-.14E-6,0
ASNARO,2014-070A,2026-06-06T22:49:34.760064,15.19283222,.00046016,97.3450,234.3433,200.1523,159.9531,0,U,40298,999,64245,.46002027E-3,.9646E-4,0
YAOGAN-24,2014-072A,2026-06-06T23:35:00.337056,14.76209144,.00127877,98.1480,295.2349,300.0944,59.8997,0,U,40310,999,62221,.82774863E-4,.52E-5,0
CBERS 4,2014-079A,2026-06-06T22:19:48.423648,14.35505825,.00020567,98.3531,215.0834,73.6976,286.4436,0,U,40336,999,60248,.1830407E-5,-.37E-6,0
YAOGAN-26,2014-088A,2026-06-06T23:29:59.860320,15.46946907,.00067293,97.0649,158.4301,90.1410,270.0612,0,U,40362,999,63612,.69497752E-3,.35068E-3,0
SMAP,2015-003A,2026-06-06T21:24:10.383840,14.63357522,.00012568,98.1276,165.1322,92.7506,267.3840,0,U,40376,999,60611,.97370583E-4,.456E-5,0
KOMPSAT-3A,2015-014A,2026-06-06T22:29:58.254720,15.53528421,.00555779,97.6889,148.5544,211.8599,147.9288,0,U,40536,999,62022,.39526447E-3,.26802E-3,0
SENTINEL-2A,2015-028A,2026-06-06T22:26:21.134112,14.30820921,.00010805,98.5680,232.9318,87.1387,272.9920,0,U,40697,999,57226,.77098928E-4,.158E-5,0
GAOFEN-8,2015-030A,2026-06-06T22:11:07.396224,15.45584556,.00079858,97.6917,350.6813,224.9365,135.1237,0,U,40701,999,60986,.45881911E-3,.22028E-3,0
CARBONITE 1 (CBNT-1),2015-032D,2026-06-06T22:20:10.627584,14.83559042,.00138701,97.6507,336.4275,334.4894,25.5634,0,U,40718,999,58782,.32598089E-3,.2638E-4,0
YAOGAN-27,2015-040A,2026-06-06T22:01:36.845184,13.16070083,.0007466,100.1155,144.7467,236.2732,123.7671,0,U,40878,999,51631,.3193405E-5,-.41E-6,0
GAOFEN-9 01,2015-047A,2026-06-06T22:34:48.241632,14.82864174,.00275849,97.6284,194.1009,170.5520,189.6219,0,U,40894,999,57867,.13238922E-3,.1028E-4,0
YAOGAN-28,2015-064A,2026-06-06T23:18:49.328928,15.27286661,.00097366,97.3065,296.4432,220.7321,139.3191,0,U,41026,999,58912,.28490849E-3,.7554E-4,0
YAOGAN-29,2015-069A,2026-06-06T22:08:35.683008,14.83078300,.00029879,98.0031,186.5393,70.7085,289.4451,0,U,41038,999,56910,.95583255E-4,.724E-5,0
KENT RIDGE 1,2015-077B,2026-06-06T03:52:43.457376,15.23064317,.00083084,14.9812,347.9786,82.2987,277.8279,0,U,41167,999,57941,.16723478E-3,.4828E-4,0
GAOFEN-4,2015-083A,2026-06-06T19:06:26.328384,1.00269078,.00043587,0.3301,83.7532,108.8481,94.9007,0,U,41194,999,3842,0,-.321E-5,0
JASON-3,2016-002A,2026-06-06T21:43:59.504448,12.87627770,.00085939,66.0390,147.4512,273.1915,86.8121,0,U,41240,999,48592,.43541076E-4,-.51E-6,0
SENTINEL-3A,2016-011A,2026-06-06T21:46:45.834816,14.26737156,.00013453,98.6250,225.4383,104.6986,255.4344,0,U,41335,999,53659,.65689075E-4,.115E-5,0
ZIYUAN 3-02 (ZY 3-02),2016-033A,2026-06-06T22:18:41.311584,15.21382140,.00117458,97.3832,233.9000,330.3869,29.6700,0,U,41556,999,55642,.26362218E-3,.5853E-4,0
CARTOSAT-2C,2016-040A,2026-06-06T22:01:12.717984,15.19234363,.00095751,97.4480,218.0364,163.9766,196.1773,0,U,41599,999,55215,.24101433E-3,.5015E-4,0
